{
    "data": [
        {
            "name": "Aruba",
            "code2": "AW",
            "code3": "ABW",
            "calling_code": "297"
        },
        {
            "name": "Islamska Republika Afganistan",
            "code2": "AF",
            "code3": "AFG",
            "calling_code": "93"
        },
        {
            "name": "Republika Angola",
            "code2": "AO",
            "code3": "AGO",
            "calling_code": "244"
        },
        {
            "name": "Anguilla",
            "code2": "AI",
            "code3": "AIA",
            "calling_code": "1264"
        },
        {
            "name": "Aland Islands",
            "code2": "AX",
            "code3": "ALA",
            "calling_code": "358"
        },
        {
            "name": "Republika Albanija",
            "code2": "AL",
            "code3": "ALB",
            "calling_code": "355"
        },
        {
            "name": "Kneževina Andora",
            "code2": "AD",
            "code3": "AND",
            "calling_code": "376"
        },
        {
            "name": "Ujedinjeni Arapski Emirati",
            "code2": "AE",
            "code3": "ARE",
            "calling_code": "971"
        },
        {
            "name": "Argentinski Republika",
            "code2": "AR",
            "code3": "ARG",
            "calling_code": "54"
        },
        {
            "name": "Republika Armenija",
            "code2": "AM",
            "code3": "ARM",
            "calling_code": "374"
        },
        {
            "name": "američka Samoa",
            "code2": "AS",
            "code3": "ASM",
            "calling_code": "1684"
        },
        {
            "name": "Antarktika",
            "code2": "AQ",
            "code3": "ATA"
        },
        {
            "name": "Teritoriju Francuski južni i antarktički teritoriji",
            "code2": "TF",
            "code3": "ATF"
        },
        {
            "name": "Antigva i Barbuda",
            "code2": "AG",
            "code3": "ATG",
            "calling_code": "1268"
        },
        {
            "name": "Commonwealth of Australia",
            "code2": "AU",
            "code3": "AUS",
            "calling_code": "61"
        },
        {
            "name": "Republika Austrija",
            "code2": "AT",
            "code3": "AUT",
            "calling_code": "43"
        },
        {
            "name": "Republika Azerbajdžan",
            "code2": "AZ",
            "code3": "AZE",
            "calling_code": "994"
        },
        {
            "name": "Burundi",
            "code2": "BI",
            "code3": "BDI",
            "calling_code": "257"
        },
        {
            "name": "Kraljevina Belgija",
            "code2": "BE",
            "code3": "BEL",
            "calling_code": "32"
        },
        {
            "name": "Republika Benin",
            "code2": "BJ",
            "code3": "BEN",
            "calling_code": "229"
        },
        {
            "name": "Burkina Faso",
            "code2": "BF",
            "code3": "BFA",
            "calling_code": "226"
        },
        {
            "name": "Narodna Republika Bangladeš",
            "code2": "BD",
            "code3": "BGD",
            "calling_code": "880"
        },
        {
            "name": "Republika Bugarska",
            "code2": "BG",
            "code3": "BGR",
            "calling_code": "359"
        },
        {
            "name": "Kraljevina Bahrein",
            "code2": "BH",
            "code3": "BHR",
            "calling_code": "973"
        },
        {
            "name": "Zajednica Bahama",
            "code2": "BS",
            "code3": "BHS",
            "calling_code": "1242"
        },
        {
            "name": "Bosna i Hercegovina",
            "code2": "BA",
            "code3": "BIH",
            "calling_code": "387"
        },
        {
            "name": "Kolektivnost sv Barthélemy",
            "code2": "BL",
            "code3": "BLM",
            "calling_code": "590"
        },
        {
            "name": "Republika Bjelorusija",
            "code2": "BY",
            "code3": "BLR",
            "calling_code": "375"
        },
        {
            "name": "Belize",
            "code2": "BZ",
            "code3": "BLZ",
            "calling_code": "501"
        },
        {
            "name": "Bermuda",
            "code2": "BM",
            "code3": "BMU",
            "calling_code": "1441"
        },
        {
            "name": "Plurinational State of Bolivia",
            "code2": "BO",
            "code3": "BOL",
            "calling_code": "591"
        },
        {
            "name": "Savezne Republike Brazil",
            "code2": "BR",
            "code3": "BRA",
            "calling_code": "55"
        },
        {
            "name": "Barbados",
            "code2": "BB",
            "code3": "BRB",
            "calling_code": "1246"
        },
        {
            "name": "Nacija od Bruneja, Kuću Mira",
            "code2": "BN",
            "code3": "BRN",
            "calling_code": "673"
        },
        {
            "name": "Kraljevina Butan",
            "code2": "BT",
            "code3": "BTN",
            "calling_code": "975"
        },
        {
            "name": "Bouvet Island",
            "code2": "BV",
            "code3": "BVT"
        },
        {
            "name": "Republika Bocvana",
            "code2": "BW",
            "code3": "BWA",
            "calling_code": "267"
        },
        {
            "name": "Centralna Afrička Republika",
            "code2": "CF",
            "code3": "CAF",
            "calling_code": "236"
        },
        {
            "name": "Kanada",
            "code2": "CA",
            "code3": "CAN",
            "calling_code": "1"
        },
        {
            "name": "Teritoriju Kokosovi (Keeling) Islands",
            "code2": "CC",
            "code3": "CCK",
            "calling_code": "61"
        },
        {
            "name": "švicarska Konfederacija",
            "code2": "CH",
            "code3": "CHE",
            "calling_code": "41"
        },
        {
            "name": "Republika Čile",
            "code2": "CL",
            "code3": "CHL",
            "calling_code": "56"
        },
        {
            "name": "Narodna Republika Kina",
            "code2": "CN",
            "code3": "CHN",
            "calling_code": "86"
        },
        {
            "name": "Republika Côte d'Ivoire",
            "code2": "CI",
            "code3": "CIV",
            "calling_code": "225"
        },
        {
            "name": "Republika Kamerun",
            "code2": "CM",
            "code3": "CMR",
            "calling_code": "237"
        },
        {
            "name": "Demokratska Republika Kongo",
            "code2": "CD",
            "code3": "COD",
            "calling_code": "243"
        },
        {
            "name": "Republika Kongo",
            "code2": "CG",
            "code3": "COG",
            "calling_code": "242"
        },
        {
            "name": "Cook Islands",
            "code2": "CK",
            "code3": "COK",
            "calling_code": "682"
        },
        {
            "name": "Republika Kolumbija",
            "code2": "CO",
            "code3": "COL",
            "calling_code": "57"
        },
        {
            "name": "Savez Komori",
            "code2": "KM",
            "code3": "COM",
            "calling_code": "269"
        },
        {
            "name": "Republika Cabo Verde",
            "code2": "CV",
            "code3": "CPV",
            "calling_code": "238"
        },
        {
            "name": "Republika Kostarika",
            "code2": "CR",
            "code3": "CRI",
            "calling_code": "506"
        },
        {
            "name": "Republika Kuba",
            "code2": "CU",
            "code3": "CUB",
            "calling_code": "53"
        },
        {
            "name": "Land Curaçao",
            "code2": "CW",
            "code3": "CUW",
            "calling_code": "599"
        },
        {
            "name": "Teritorij Božićni otok",
            "code2": "CX",
            "code3": "CXR",
            "calling_code": "61"
        },
        {
            "name": "Kajmanski otoci",
            "code2": "KY",
            "code3": "CYM",
            "calling_code": "1345"
        },
        {
            "name": "Republika Cipar",
            "code2": "CY",
            "code3": "CYP",
            "calling_code": "357"
        },
        {
            "name": "Češka",
            "code2": "CZ",
            "code3": "CZE",
            "calling_code": "420"
        },
        {
            "name": "Njemačka Federativna Republika",
            "code2": "DE",
            "code3": "DEU",
            "calling_code": "49"
        },
        {
            "name": "Republika Džibuti",
            "code2": "DJ",
            "code3": "DJI",
            "calling_code": "253"
        },
        {
            "name": "Zajednica Dominika",
            "code2": "DM",
            "code3": "DMA",
            "calling_code": "1767"
        },
        {
            "name": "Kraljevina Danska",
            "code2": "DK",
            "code3": "DNK",
            "calling_code": "45"
        },
        {
            "name": "Dominikanska Republika",
            "code2": "DO",
            "code3": "DOM",
            "calling_code": "1809"
        },
        {
            "name": "Narodna Demokratska Republika Alžir",
            "code2": "DZ",
            "code3": "DZA",
            "calling_code": "213"
        },
        {
            "name": "Republika Ekvador",
            "code2": "EC",
            "code3": "ECU",
            "calling_code": "593"
        },
        {
            "name": "Arapska Republika Egipat",
            "code2": "EG",
            "code3": "EGY",
            "calling_code": "20"
        },
        {
            "name": "Država Eritreji",
            "code2": "ER",
            "code3": "ERI",
            "calling_code": "291"
        },
        {
            "name": "Sahrawi Arab Demokratska Republika",
            "code2": "EH",
            "code3": "ESH",
            "calling_code": "212"
        },
        {
            "name": "Kraljevina Španjolska",
            "code2": "ES",
            "code3": "ESP",
            "calling_code": "34"
        },
        {
            "name": "Republika Estonija",
            "code2": "EE",
            "code3": "EST",
            "calling_code": "372"
        },
        {
            "name": "Savezna Demokratska Republika Etiopija",
            "code2": "ET",
            "code3": "ETH",
            "calling_code": "251"
        },
        {
            "name": "Republika Finska",
            "code2": "FI",
            "code3": "FIN",
            "calling_code": "358"
        },
        {
            "name": "Republika Fidži",
            "code2": "FJ",
            "code3": "FJI",
            "calling_code": "679"
        },
        {
            "name": "Falklandski otoci",
            "code2": "FK",
            "code3": "FLK",
            "calling_code": "500"
        },
        {
            "name": "Francuska Republika",
            "code2": "FR",
            "code3": "FRA",
            "calling_code": "33"
        },
        {
            "name": "Farski Otoci",
            "code2": "FO",
            "code3": "FRO",
            "calling_code": "298"
        },
        {
            "name": "Savezne Države Mikronezije",
            "code2": "FM",
            "code3": "FSM",
            "calling_code": "691"
        },
        {
            "name": "Gabon Republika",
            "code2": "GA",
            "code3": "GAB",
            "calling_code": "241"
        },
        {
            "name": "Ujedinjeno Kraljevstvo Velike Britanije i Sjeverne Irske",
            "code2": "GB",
            "code3": "GBR",
            "calling_code": "44"
        },
        {
            "name": "Gruzija",
            "code2": "GE",
            "code3": "GEO",
            "calling_code": "995"
        },
        {
            "name": "Struka Guernsey",
            "code2": "GG",
            "code3": "GGY",
            "calling_code": "44"
        },
        {
            "name": "Republika Gana",
            "code2": "GH",
            "code3": "GHA",
            "calling_code": "233"
        },
        {
            "name": "Gibraltar",
            "code2": "GI",
            "code3": "GIB",
            "calling_code": "350"
        },
        {
            "name": "Republika Gvineja",
            "code2": "GN",
            "code3": "GIN",
            "calling_code": "224"
        },
        {
            "name": "Gvadalupa",
            "code2": "GP",
            "code3": "GLP",
            "calling_code": "590"
        },
        {
            "name": "Republika Gambija",
            "code2": "GM",
            "code3": "GMB",
            "calling_code": "220"
        },
        {
            "name": "Republika Gvineja Bisau",
            "code2": "GW",
            "code3": "GNB",
            "calling_code": "245"
        },
        {
            "name": "Republika Ekvatorska Gvineja",
            "code2": "GQ",
            "code3": "GNQ",
            "calling_code": "240"
        },
        {
            "name": "Helenska Republika",
            "code2": "GR",
            "code3": "GRC",
            "calling_code": "30"
        },
        {
            "name": "Grenada",
            "code2": "GD",
            "code3": "GRD",
            "calling_code": "1473"
        },
        {
            "name": "Grenland",
            "code2": "GL",
            "code3": "GRL",
            "calling_code": "299"
        },
        {
            "name": "Republika Gvatemala",
            "code2": "GT",
            "code3": "GTM",
            "calling_code": "502"
        },
        {
            "name": "Gijana",
            "code2": "GF",
            "code3": "GUF",
            "calling_code": "594"
        },
        {
            "name": "Guam",
            "code2": "GU",
            "code3": "GUM",
            "calling_code": "1671"
        },
        {
            "name": "Zadruga Republika Gvajana",
            "code2": "GY",
            "code3": "GUY",
            "calling_code": "592"
        },
        {
            "name": "Hong Kong Posebnog upravnog područjaNarodne Republike Kine",
            "code2": "HK",
            "code3": "HKG",
            "calling_code": "852"
        },
        {
            "name": "Otok Heard i otočje McDonald",
            "code2": "HM",
            "code3": "HMD"
        },
        {
            "name": "Republika Honduras",
            "code2": "HN",
            "code3": "HND",
            "calling_code": "504"
        },
        {
            "name": "Republika Hrvatska",
            "code2": "HR",
            "code3": "HRV",
            "calling_code": "385"
        },
        {
            "name": "Republika Haiti",
            "code2": "HT",
            "code3": "HTI",
            "calling_code": "509"
        },
        {
            "name": "Madžarska",
            "code2": "HU",
            "code3": "HUN",
            "calling_code": "36"
        },
        {
            "name": "Republika Indonezija",
            "code2": "ID",
            "code3": "IDN",
            "calling_code": "62"
        },
        {
            "name": "Mana ostrvo",
            "code2": "IM",
            "code3": "IMN",
            "calling_code": "44"
        },
        {
            "name": "Republika Indija",
            "code2": "IN",
            "code3": "IND",
            "calling_code": "91"
        },
        {
            "name": "British Indian Ocean Territory",
            "code2": "IO",
            "code3": "IOT",
            "calling_code": "246"
        },
        {
            "name": "Republika Irska",
            "code2": "IE",
            "code3": "IRL",
            "calling_code": "353"
        },
        {
            "name": "Islamska Republika Iran",
            "code2": "IR",
            "code3": "IRN",
            "calling_code": "98"
        },
        {
            "name": "Republika Irak",
            "code2": "IQ",
            "code3": "IRQ",
            "calling_code": "964"
        },
        {
            "name": "Island",
            "code2": "IS",
            "code3": "ISL",
            "calling_code": "354"
        },
        {
            "name": "Država Izrael",
            "code2": "IL",
            "code3": "ISR",
            "calling_code": "972"
        },
        {
            "name": "talijanska Republika",
            "code2": "IT",
            "code3": "ITA",
            "calling_code": "39"
        },
        {
            "name": "Jamajka",
            "code2": "JM",
            "code3": "JAM",
            "calling_code": "1876"
        },
        {
            "name": "Struka od Jersey",
            "code2": "JE",
            "code3": "JEY",
            "calling_code": "44"
        },
        {
            "name": "Hašemitske Kraljevine Jordan",
            "code2": "JO",
            "code3": "JOR",
            "calling_code": "962"
        },
        {
            "name": "Japan",
            "code2": "JP",
            "code3": "JPN",
            "calling_code": "81"
        },
        {
            "name": "Republika Kazahstan",
            "code2": "KZ",
            "code3": "KAZ",
            "calling_code": "76"
        },
        {
            "name": "Republika Kenija",
            "code2": "KE",
            "code3": "KEN",
            "calling_code": "254"
        },
        {
            "name": "Kirgistanu",
            "code2": "KG",
            "code3": "KGZ",
            "calling_code": "996"
        },
        {
            "name": "Kraljevina Kambodža",
            "code2": "KH",
            "code3": "KHM",
            "calling_code": "855"
        },
        {
            "name": "Samostalne i suverene Republike Kiribati",
            "code2": "KI",
            "code3": "KIR",
            "calling_code": "686"
        },
        {
            "name": "Federacija Sv.Kristofora i Nevisa",
            "code2": "KN",
            "code3": "KNA",
            "calling_code": "1869"
        },
        {
            "name": "Republika Koreja",
            "code2": "KR",
            "code3": "KOR",
            "calling_code": "82"
        },
        {
            "name": "Republika Kosovo",
            "code2": "XK",
            "code3": "UNK",
            "calling_code": "383"
        },
        {
            "name": "Država Kuvajt",
            "code2": "KW",
            "code3": "KWT",
            "calling_code": "965"
        },
        {
            "name": "Narodna Demokratska Republika",
            "code2": "LA",
            "code3": "LAO",
            "calling_code": "856"
        },
        {
            "name": "Libanonska Republika",
            "code2": "LB",
            "code3": "LBN",
            "calling_code": "961"
        },
        {
            "name": "Republika Liberija",
            "code2": "LR",
            "code3": "LBR",
            "calling_code": "231"
        },
        {
            "name": "Država Libiji",
            "code2": "LY",
            "code3": "LBY",
            "calling_code": "218"
        },
        {
            "name": "Sveta Lucija",
            "code2": "LC",
            "code3": "LCA",
            "calling_code": "1758"
        },
        {
            "name": "Kneževina Lihtenštajn",
            "code2": "LI",
            "code3": "LIE",
            "calling_code": "423"
        },
        {
            "name": "Demokratska Socijalističke Republike Šri Lanke",
            "code2": "LK",
            "code3": "LKA",
            "calling_code": "94"
        },
        {
            "name": "Kraljevina Lesoto",
            "code2": "LS",
            "code3": "LSO",
            "calling_code": "266"
        },
        {
            "name": "Republika Litva",
            "code2": "LT",
            "code3": "LTU",
            "calling_code": "370"
        },
        {
            "name": "Veliko Vojvodstvo Luksemburg",
            "code2": "LU",
            "code3": "LUX",
            "calling_code": "352"
        },
        {
            "name": "Republika Latvija",
            "code2": "LV",
            "code3": "LVA",
            "calling_code": "371"
        },
        {
            "name": "Makao Posebnog upravnog područjaNarodne Republike Kine",
            "code2": "MO",
            "code3": "MAC",
            "calling_code": "853"
        },
        {
            "name": "Saint Martin",
            "code2": "MF",
            "code3": "MAF",
            "calling_code": "590"
        },
        {
            "name": "Kraljevina Maroko",
            "code2": "MA",
            "code3": "MAR",
            "calling_code": "212"
        },
        {
            "name": "Kneževina Monako",
            "code2": "MC",
            "code3": "MCO",
            "calling_code": "377"
        },
        {
            "name": "Moldavija",
            "code2": "MD",
            "code3": "MDA",
            "calling_code": "373"
        },
        {
            "name": "Republika Madagaskar",
            "code2": "MG",
            "code3": "MDG",
            "calling_code": "261"
        },
        {
            "name": "Republika Maldivi",
            "code2": "MV",
            "code3": "MDV",
            "calling_code": "960"
        },
        {
            "name": "Sjedinjene Meksičke Države",
            "code2": "MX",
            "code3": "MEX",
            "calling_code": "52"
        },
        {
            "name": "Republika Maršalovi Otoci",
            "code2": "MH",
            "code3": "MHL",
            "calling_code": "692"
        },
        {
            "name": "Republika Makedonija",
            "code2": "MK",
            "code3": "MKD",
            "calling_code": "389"
        },
        {
            "name": "Republika Mali",
            "code2": "ML",
            "code3": "MLI",
            "calling_code": "223"
        },
        {
            "name": "Republika Malta",
            "code2": "MT",
            "code3": "MLT",
            "calling_code": "356"
        },
        {
            "name": "Republika Unije Mijanmar",
            "code2": "MM",
            "code3": "MMR",
            "calling_code": "95"
        },
        {
            "name": "Crna Gora",
            "code2": "ME",
            "code3": "MNE",
            "calling_code": "382"
        },
        {
            "name": "Mongolija",
            "code2": "MN",
            "code3": "MNG",
            "calling_code": "976"
        },
        {
            "name": "Zajednica je Sjeverni Marijanski otoci",
            "code2": "MP",
            "code3": "MNP",
            "calling_code": "1670"
        },
        {
            "name": "Republika Mozambiku",
            "code2": "MZ",
            "code3": "MOZ",
            "calling_code": "258"
        },
        {
            "name": "Islamska Republika Mauritanija",
            "code2": "MR",
            "code3": "MRT",
            "calling_code": "222"
        },
        {
            "name": "Montserrat",
            "code2": "MS",
            "code3": "MSR",
            "calling_code": "1664"
        },
        {
            "name": "Martinique",
            "code2": "MQ",
            "code3": "MTQ",
            "calling_code": "596"
        },
        {
            "name": "Republika Mauricijus",
            "code2": "MU",
            "code3": "MUS",
            "calling_code": "230"
        },
        {
            "name": "Republika Malavi",
            "code2": "MW",
            "code3": "MWI",
            "calling_code": "265"
        },
        {
            "name": "Malezija",
            "code2": "MY",
            "code3": "MYS",
            "calling_code": "60"
        },
        {
            "name": "Odjel Mayotte",
            "code2": "YT",
            "code3": "MYT",
            "calling_code": "262"
        },
        {
            "name": "Republika Namibija",
            "code2": "NA",
            "code3": "NAM",
            "calling_code": "264"
        },
        {
            "name": "Nova Kaledonija",
            "code2": "NC",
            "code3": "NCL",
            "calling_code": "687"
        },
        {
            "name": "Republika Niger",
            "code2": "NE",
            "code3": "NER",
            "calling_code": "227"
        },
        {
            "name": "Teritorij Norfolk Island",
            "code2": "NF",
            "code3": "NFK",
            "calling_code": "672"
        },
        {
            "name": "Savezna Republika Nigerija",
            "code2": "NG",
            "code3": "NGA",
            "calling_code": "234"
        },
        {
            "name": "Republika Nikaragva",
            "code2": "NI",
            "code3": "NIC",
            "calling_code": "505"
        },
        {
            "name": "Niue",
            "code2": "NU",
            "code3": "NIU",
            "calling_code": "683"
        },
        {
            "name": "Holandija",
            "code2": "NL",
            "code3": "NLD",
            "calling_code": "31"
        },
        {
            "name": "Kraljevina Norveška",
            "code2": "NO",
            "code3": "NOR",
            "calling_code": "47"
        },
        {
            "name": "Savezna Demokratska Republika Nepal",
            "code2": "NP",
            "code3": "NPL",
            "calling_code": "977"
        },
        {
            "name": "Republika Nauru",
            "code2": "NR",
            "code3": "NRU",
            "calling_code": "674"
        },
        {
            "name": "Novi Zeland",
            "code2": "NZ",
            "code3": "NZL",
            "calling_code": "64"
        },
        {
            "name": "Sultanat Oman",
            "code2": "OM",
            "code3": "OMN",
            "calling_code": "968"
        },
        {
            "name": "Islamska Republika Pakistan",
            "code2": "PK",
            "code3": "PAK",
            "calling_code": "92"
        },
        {
            "name": "Republika Panama",
            "code2": "PA",
            "code3": "PAN",
            "calling_code": "507"
        },
        {
            "name": "Pitcairn skupine otoka",
            "code2": "PN",
            "code3": "PCN",
            "calling_code": "64"
        },
        {
            "name": "Republika Peru",
            "code2": "PE",
            "code3": "PER",
            "calling_code": "51"
        },
        {
            "name": "Republika Filipini",
            "code2": "PH",
            "code3": "PHL",
            "calling_code": "63"
        },
        {
            "name": "Republika Palau",
            "code2": "PW",
            "code3": "PLW",
            "calling_code": "680"
        },
        {
            "name": "Nezavisna Država Papui Novoj Gvineji",
            "code2": "PG",
            "code3": "PNG",
            "calling_code": "675"
        },
        {
            "name": "Republika Poljska",
            "code2": "PL",
            "code3": "POL",
            "calling_code": "48"
        },
        {
            "name": "Zajednica Puerto Rico",
            "code2": "PR",
            "code3": "PRI",
            "calling_code": "1787"
        },
        {
            "name": "Demokratska Narodna Republika Koreja",
            "code2": "KP",
            "code3": "PRK",
            "calling_code": "850"
        },
        {
            "name": "Portugalska Republika",
            "code2": "PT",
            "code3": "PRT",
            "calling_code": "351"
        },
        {
            "name": "Republika Paragvaj",
            "code2": "PY",
            "code3": "PRY",
            "calling_code": "595"
        },
        {
            "name": "State of Palestine",
            "code2": "PS",
            "code3": "PSE",
            "calling_code": "970"
        },
        {
            "name": "Francuska Polinezija",
            "code2": "PF",
            "code3": "PYF",
            "calling_code": "689"
        },
        {
            "name": "Država Katar",
            "code2": "QA",
            "code3": "QAT",
            "calling_code": "974"
        },
        {
            "name": "Réunion Island",
            "code2": "RE",
            "code3": "REU",
            "calling_code": "262"
        },
        {
            "name": "Rumunija",
            "code2": "RO",
            "code3": "ROU",
            "calling_code": "40"
        },
        {
            "name": "Ruska Federacija",
            "code2": "RU",
            "code3": "RUS",
            "calling_code": "7"
        },
        {
            "name": "Republika Ruandi",
            "code2": "RW",
            "code3": "RWA",
            "calling_code": "250"
        },
        {
            "name": "Kraljevina Saudijska Arabija",
            "code2": "SA",
            "code3": "SAU",
            "calling_code": "966"
        },
        {
            "name": "Republika Sudan",
            "code2": "SD",
            "code3": "SDN",
            "calling_code": "249"
        },
        {
            "name": "Republika Senegal",
            "code2": "SN",
            "code3": "SEN",
            "calling_code": "221"
        },
        {
            "name": "Republika Singapur",
            "code2": "SG",
            "code3": "SGP",
            "calling_code": "65"
        },
        {
            "name": "Južna Džordžija i Otoci Južni Sendvič",
            "code2": "GS",
            "code3": "SGS",
            "calling_code": "500"
        },
        {
            "name": "Svalbard og Jan Mayen",
            "code2": "SJ",
            "code3": "SJM",
            "calling_code": "4779"
        },
        {
            "name": "Solomonski Otoci",
            "code2": "SB",
            "code3": "SLB",
            "calling_code": "677"
        },
        {
            "name": "Republika Sijera Leone",
            "code2": "SL",
            "code3": "SLE",
            "calling_code": "232"
        },
        {
            "name": "Republika El Salvador",
            "code2": "SV",
            "code3": "SLV",
            "calling_code": "503"
        },
        {
            "name": "Većina Serene Republika San Marino",
            "code2": "SM",
            "code3": "SMR",
            "calling_code": "378"
        },
        {
            "name": "Savezna Republika Somaliji",
            "code2": "SO",
            "code3": "SOM",
            "calling_code": "252"
        },
        {
            "name": "Saint Pierre i Miquelon",
            "code2": "PM",
            "code3": "SPM",
            "calling_code": "508"
        },
        {
            "name": "Republika Srbija",
            "code2": "RS",
            "code3": "SRB",
            "calling_code": "381"
        },
        {
            "name": "Republika Južni Sudan",
            "code2": "SS",
            "code3": "SSD",
            "calling_code": "211"
        },
        {
            "name": "Demokratska Republika São Tome i Principe",
            "code2": "ST",
            "code3": "STP",
            "calling_code": "239"
        },
        {
            "name": "Republika Surinam",
            "code2": "SR",
            "code3": "SUR",
            "calling_code": "597"
        },
        {
            "name": "slovačka",
            "code2": "SK",
            "code3": "SVK",
            "calling_code": "421"
        },
        {
            "name": "Republika Slovenija",
            "code2": "SI",
            "code3": "SVN",
            "calling_code": "386"
        },
        {
            "name": "Kraljevina Švedska",
            "code2": "SE",
            "code3": "SWE",
            "calling_code": "46"
        },
        {
            "name": "Kraljevina Svazi",
            "code2": "SZ",
            "code3": "SWZ",
            "calling_code": "268"
        },
        {
            "name": "Sint Maarten",
            "code2": "SX",
            "code3": "SXM",
            "calling_code": "1721"
        },
        {
            "name": "Republika Sejšeli",
            "code2": "SC",
            "code3": "SYC",
            "calling_code": "248"
        },
        {
            "name": "Sirijska Arapska Republika",
            "code2": "SY",
            "code3": "SYR",
            "calling_code": "963"
        },
        {
            "name": "Otoci Turks i Caicos",
            "code2": "TC",
            "code3": "TCA",
            "calling_code": "1649"
        },
        {
            "name": "Čadu",
            "code2": "TD",
            "code3": "TCD",
            "calling_code": "235"
        },
        {
            "name": "Togolese Republika",
            "code2": "TG",
            "code3": "TGO",
            "calling_code": "228"
        },
        {
            "name": "Kraljevina Tajland",
            "code2": "TH",
            "code3": "THA",
            "calling_code": "66"
        },
        {
            "name": "Republika Tadžikistan",
            "code2": "TJ",
            "code3": "TJK",
            "calling_code": "992"
        },
        {
            "name": "Tokelau",
            "code2": "TK",
            "code3": "TKL",
            "calling_code": "690"
        },
        {
            "name": "Turkmenistan",
            "code2": "TM",
            "code3": "TKM",
            "calling_code": "993"
        },
        {
            "name": "Demokratska Republika Timor-Leste",
            "code2": "TL",
            "code3": "TLS",
            "calling_code": "670"
        },
        {
            "name": "Kraljevina Tonga",
            "code2": "TO",
            "code3": "TON",
            "calling_code": "676"
        },
        {
            "name": "Republika Trinidad i Tobago",
            "code2": "TT",
            "code3": "TTO",
            "calling_code": "1868"
        },
        {
            "name": "Tuniski Republika",
            "code2": "TN",
            "code3": "TUN",
            "calling_code": "216"
        },
        {
            "name": "Republika Turska",
            "code2": "TR",
            "code3": "TUR",
            "calling_code": "90"
        },
        {
            "name": "Tuvalu",
            "code2": "TV",
            "code3": "TUV",
            "calling_code": "688"
        },
        {
            "name": "Republika Kina",
            "code2": "TW",
            "code3": "TWN",
            "calling_code": "886"
        },
        {
            "name": "Ujedinjena Republika Tanzanija",
            "code2": "TZ",
            "code3": "TZA",
            "calling_code": "255"
        },
        {
            "name": "Republika Uganda",
            "code2": "UG",
            "code3": "UGA",
            "calling_code": "256"
        },
        {
            "name": "Ukrajina",
            "code2": "UA",
            "code3": "UKR",
            "calling_code": "380"
        },
        {
            "name": "Mali udaljeni otoci SAD-a",
            "code2": "UM",
            "code3": "UMI"
        },
        {
            "name": "Orijentalna Republika Urugvaj",
            "code2": "UY",
            "code3": "URY",
            "calling_code": "598"
        },
        {
            "name": "Sjedinjene Države Amerike",
            "code2": "US",
            "code3": "USA",
            "calling_code": "1"
        },
        {
            "name": "Republika Uzbekistan",
            "code2": "UZ",
            "code3": "UZB",
            "calling_code": "998"
        },
        {
            "name": "Vatikan",
            "code2": "VA",
            "code3": "VAT",
            "calling_code": "3906698"
        },
        {
            "name": "Sveti Vincent i Grenadini",
            "code2": "VC",
            "code3": "VCT",
            "calling_code": "1784"
        },
        {
            "name": "BOLIVARIJANSKA Republika Venezuela",
            "code2": "VE",
            "code3": "VEN",
            "calling_code": "58"
        },
        {
            "name": "Djevičanski Otoci",
            "code2": "VG",
            "code3": "VGB",
            "calling_code": "1284"
        },
        {
            "name": "Djevičanski Otoci SAD",
            "code2": "VI",
            "code3": "VIR",
            "calling_code": "1340"
        },
        {
            "name": "Socijalistička Republika Vijetnam",
            "code2": "VN",
            "code3": "VNM",
            "calling_code": "84"
        },
        {
            "name": "Republika Vanuatu",
            "code2": "VU",
            "code3": "VUT",
            "calling_code": "678"
        },
        {
            "name": "Teritoriju Wallis i Futuna",
            "code2": "WF",
            "code3": "WLF",
            "calling_code": "681"
        },
        {
            "name": "Nezavisna Država Samoa",
            "code2": "WS",
            "code3": "WSM",
            "calling_code": "685"
        },
        {
            "name": "Republika Jemen",
            "code2": "YE",
            "code3": "YEM",
            "calling_code": "967"
        },
        {
            "name": "Južnoafrička Republika",
            "code2": "ZA",
            "code3": "ZAF",
            "calling_code": "27"
        },
        {
            "name": "Republika Zambija",
            "code2": "ZM",
            "code3": "ZMB",
            "calling_code": "260"
        },
        {
            "name": "Republika Zimbabve",
            "code2": "ZW",
            "code3": "ZWE",
            "calling_code": "263"
        },
        {
            "name": "Bonaire, Sint Eustatius und Saba",
            "code2": "BQ",
            "code3": "BES",
            "calling_code": "599"
        },
        {
            "name": "Saint Helena, Ascension and Tristan da Cunha",
            "code2": "SH",
            "code3": "SHN",
            "calling_code": "290"
        }
    ]
}
